NORAD_CAT_ID,OBJECT_NAME,OBJECT_TYPE,EPOCH,MEAN_MOTION,ECCENTRICITY,INCLINATION,RA_OF_ASC_NODE,ARG_OF_PERICENTER,MEAN_ANOMALY,BSTAR,MEAN_MOTION_DOT,MEAN_MOTION_DDOT,TLE_LINE0,TLE_LINE1,TLE_LINE2,SEMIMAJOR_AXIS,PERIOD,APOGEE,PERIGEE,DECAYED
53934.0,STARLINK-4775,PAYLOAD,2023-04-06 03:57:20,15.08855908,0.0001277,53.2185,55.9586,90.404,269.7098,0.00059973,9.274e-05,0.0,0 STARLINK-4775,1 53934U 22119BA  23096.16481580  .00009274  00000-0  59973-3 0  9990,2 53934  53.2185  55.9586 0001277  90.4040 269.7098 15.08855908 30308,6917.832,95.437,540.58,538.813,0.0
53934.0,STARLINK-4775,PAYLOAD,2023-04-06 07:08:06,15.0885856,0.0001289,53.2187,55.364,90.1041,270.0099,0.00060528,9.363e-05,0.0,0 STARLINK-4775,1 53934U 22119BA  23096.29729418  .00009363  00000-0  60528-3 0  9996,2 53934  53.2187  55.3640 0001289  90.1041 270.0099 15.08858560 30769,6917.824,95.436,540.58,538.797,0.0
53934.0,STARLINK-4775,PAYLOAD,2023-04-06 21:26:34,15.08844658,0.0001555,53.2187,52.687,98.108,262.0089,0.00013541,1.868e-05,0.0,0 STARLINK-4775,1 53934U 22119BA  23096.89345740  .00001868  00000-0  13541-3 0  9999,2 53934  53.2187  52.6870 0001555  98.1080 262.0089 15.08844658 30854,6917.866,95.437,540.807,538.655,0.0
53934.0,STARLINK-4775,PAYLOAD,2023-04-07 02:12:44,15.08841238,0.0001227,53.2191,51.7956,90.1722,269.9411,8.4559e-05,1.058e-05,0.0,0 STARLINK-4775,1 53934U 22119BA  23097.09217844  .00001058  00000-0  84559-4 0  9994,2 53934  53.2191  51.7956 0001227  90.1722 269.9411 15.08841238 30446,6917.877,95.437,540.59,538.893,0.0
53934.0,STARLINK-4775,PAYLOAD,2023-04-07 06:58:53,15.08844594,0.0001208,53.2195,50.9044,76.5924,283.5203,0.00025297,3.741e-05,0.0,0 STARLINK-4775,1 53934U 22119BA  23097.29089857  .00003741  00000-0  25297-3 0  9991,2 53934  53.2195  50.9044 0001208  76.5924 283.5203 15.08844594 30911,6917.866,95.437,540.567,538.896,0.0
53934.0,STARLINK-4775,PAYLOAD,2023-04-08 03:38:54,15.08853021,0.000115,53.2198,47.0426,82.1053,278.007,0.00038029,5.772e-05,0.0,0 STARLINK-4775,1 53934U 22119BA  23098.15201646  .00005772  00000-0  38029-3 0  9992,2 53934  53.2198  47.0426 0001150  82.1053 278.0070 15.08853021 30609,6917.841,95.437,540.501,538.91,0.0
53934.0,STARLINK-4775,PAYLOAD,2023-04-08 06:49:40,15.08857628,0.0001216,53.2189,46.4456,80.2771,279.8359,0.00066347,0.00010292,0.0,0 STARLINK-4775,1 53934U 22119BA  23098.28449507  .00010292  00000-0  66347-3 0  9993,2 53934  53.2189  46.4456 0001216  80.2771 279.8359 15.08857628 31061,6917.827,95.436,540.533,538.85,0.0
53934.0,STARLINK-4775,PAYLOAD,2023-04-08 19:32:45,15.08843567,0.0002156,53.2192,44.0665,74.8055,285.3175,0.00017764,2.54e-05,0.0,0 STARLINK-4775,1 53934U 22119BA  23098.81442103  .00002540  00000-0  17764-3 0  9993,2 53934  53.2192  44.0665 0002156  74.8055 285.3175 15.08843567 30704,6917.869,95.437,541.226,538.243,0.0
53934.0,STARLINK-4775,PAYLOAD,2023-04-09 05:05:04,15.08847815,0.0001341,53.2197,42.2828,91.4245,268.6901,0.00026407,3.918e-05,0.0,0 STARLINK-4775,1 53934U 22119BA  23099.21185847  .00003918  00000-0  26407-3 0  9991,2 53934  53.2197  42.2828 0001341  91.4245 268.6901 15.08847815 31208,6917.857,95.437,540.649,538.794,0.0
53934.0,STARLINK-4775,PAYLOAD,2023-04-09 20:58:56,15.08835307,0.0001374,53.2194,39.3102,94.7964,265.3185,7.925e-05,9.73e-06,0.0,0 STARLINK-4775,1 53934U 22119BA  23099.87426336  .00000973  00000-0  79250-4 0  9997,2 53934  53.2194  39.3102 0001374  94.7964 265.3185 15.08835307 30869,6917.895,95.438,540.71,538.809,0.0
53934.0,STARLINK-4775,PAYLOAD,2023-04-10 04:55:51,15.08843633,0.0001549,53.2185,37.8218,92.9256,267.1913,6.609e-05,7.64e-06,0.0,0 STARLINK-4775,1 53934U 22119BA  23100.20546145  .00000764  00000-0  66090-4 0  9994,2 53934  53.2185  37.8218 0001549  92.9256 267.1913 15.08843633 31353,6917.869,95.437,540.806,538.663,0.0
53934.0,STARLINK-4775,PAYLOAD,2023-04-10 19:14:20,15.08843798,0.0001556,53.2184,35.1455,89.6486,270.4684,0.00026889,3.994e-05,0.0,0 STARLINK-4775,1 53934U 22119BA  23100.80162432  .00003994  00000-0  26889-3 0  9992,2 53934  53.2184  35.1455 0001556  89.6486 270.4684 15.08843798 31446,6917.869,95.437,540.81,538.657,0.0
53934.0,STARLINK-4775,PAYLOAD,2023-04-11 04:46:38,15.08854204,0.0001499,53.2182,33.3616,89.6116,270.5048,0.000455,6.964e-05,0.0,0 STARLINK-4775,1 53934U 22119BA  23101.19905983  .00006964  00000-0  45500-3 0  9992,2 53934  53.2182  33.3616 0001499  89.6116 270.5048 15.08854204 31505,6917.837,95.437,540.739,538.665,0.0
53934.0,STARLINK-4775,PAYLOAD,2023-04-11 19:05:07,15.08841855,0.0001427,53.2181,30.686,88.5892,271.5264,0.00014258,1.982e-05,0.0,0 STARLINK-4775,1 53934U 22119BA  23101.79522434  .00001982  00000-0  14258-3 0  9995,2 53934  53.2181  30.6860 0001427  88.5892 271.5264 15.08841855 31155,6917.875,95.437,540.727,538.753,0.0
53934.0,STARLINK-4775,PAYLOAD,2023-04-12 12:34:21,15.08840214,0.0001211,53.2177,27.4151,85.4333,274.6797,0.00019997,2.896e-05,0.0,0 STARLINK-4775,1 53934U 22119BA  23102.52386521  .00002896  00000-0  19997-3 0  9992,2 53934  53.2177  27.4151 0001211  85.4333 274.6797 15.08840214 31708,6917.88,95.438,540.582,538.907,0.0
53934.0,STARLINK-4775,PAYLOAD,2023-04-12 18:55:54,15.08837709,0.0001213,53.2183,26.226,91.8509,268.2622,0.00018946,2.728e-05,0.0,0 STARLINK-4775,1 53934U 22119BA  23102.78882736  .00002728  00000-0  18946-3 0  9996,2 53934  53.2183  26.2260 0001213  91.8509 268.2622 15.08837709 31308,6917.887,95.438,540.592,538.913,0.0
53934.0,STARLINK-4775,PAYLOAD,2023-04-13 04:28:13,15.08843857,0.0001325,53.2184,24.441,89.0957,271.0187,0.00032729,4.925e-05,0.0,0 STARLINK-4775,1 53934U 22119BA  23103.18626662  .00004925  00000-0  32729-3 0  9991,2 53934  53.2184  24.4410 0001325  89.0957 271.0187 15.08843857 31800,6917.869,95.437,540.65,538.817,0.0
53934.0,STARLINK-4775,PAYLOAD,2023-04-14 04:19:00,15.08859383,0.0001306,53.2185,19.9804,92.4286,267.6855,0.00068422,0.00010624,0.0,0 STARLINK-4775,1 53934U 22119BA  23104.17986265  .00010624  00000-0  68422-3 0  9991,2 53934  53.2185  19.9804 0001306  92.4286 267.6855 15.08859383 31511,6917.821,95.436,540.59,538.783,0.0
53934.0,STARLINK-4775,PAYLOAD,2023-04-15 02:34:23,15.08860544,0.0001149,53.2185,15.8174,77.0904,283.0216,0.00070266,0.00010919,0.0,0 STARLINK-4775,1 53934U 22119BA  23105.10721946  .00010919  00000-0  70266-3 0  9994,2 53934  53.2185  15.8174 0001149  77.0904 283.0216 15.08860544 31656,6917.818,95.436,540.477,538.888,0.0
53934.0,STARLINK-4775,PAYLOAD,2023-04-15 21:39:02,15.08830464,0.0001106,53.2188,12.2498,97.1025,263.0093,0.00057405,8.858e-05,0.0,0 STARLINK-4775,1 53934U 22119BA  23105.90210839  .00008858  00000-0  57405-3 0  9995,2 53934  53.2188  12.2498 0001106  97.1025 263.0093 15.08830464 32211,6917.91,95.438,540.54,539.009,0.0
53934.0,STARLINK-4775,PAYLOAD,2023-04-16 02:25:11,15.08842438,0.0001196,53.2192,11.3581,106.498,253.6144,0.0010323,0.0001618,0.0,0 STARLINK-4775,1 53934U 22119BA  23106.10082804  .00016180  00000-0  10323-2 0  9991,2 53934  53.2192  11.3581 0001196 106.4980 253.6144 15.08842438 31802,6917.873,95.437,540.565,538.911,0.0
53934.0,STARLINK-4775,PAYLOAD,2023-04-16 04:00:34,15.08846505,0.0001175,53.2189,11.0606,106.5812,253.5309,0.0012641,0.00019891,0.0,0 STARLINK-4775,1 53934U 22119BA  23106.16706786  .00019891  00000-0  12641-2 0  9996,2 53934  53.2189  11.0606 0001175 106.5812 253.5309 15.08846505 32256,6917.861,95.437,540.538,538.913,0.0
53934.0,STARLINK-4775,PAYLOAD,2023-04-16 21:29:49,15.08836503,0.0001192,53.2184,7.788,109.9771,250.135,0.0011165,0.00017524,0.0,0 STARLINK-4775,1 53934U 22119BA  23106.89571191  .00017524  00000-0  11165-2 0  9997,2 53934  53.2184   7.7880 0001192 109.9771 250.1350 15.08836503 32365,6917.891,95.438,540.581,538.931,0.0
53934.0,STARLINK-4775,PAYLOAD,2023-04-17 02:15:58,15.08850285,0.0001274,53.2185,6.8969,111.3489,248.7639,0.0014807,0.00023362,0.0,0 STARLINK-4775,1 53934U 22119BA  23107.09443133  .00023362  00000-0  14807-2 0  9997,2 53934  53.2185   6.8969 0001274 111.3489 248.7639 15.08850285 31958,6917.849,95.437,540.595,538.833,0.0
53934.0,STARLINK-4775,PAYLOAD,2023-04-17 18:09:50,15.08842364,0.0001329,53.2181,3.9244,115.9774,244.1355,0.00063918,9.9e-05,0.0,0 STARLINK-4775,1 53934U 22119BA  23107.75683143  .00009900  00000-0  63918-3 0  9997,2 53934  53.2181   3.9244 0001329 115.9774 244.1355 15.08842364 32052,6917.873,95.437,540.658,538.819,0.0
53934.0,STARLINK-4775,PAYLOAD,2023-04-17 21:20:36,15.08838204,0.0001294,53.2182,3.3299,115.1529,244.9597,0.00044733,6.838e-05,0.0,0 STARLINK-4775,1 53934U 22119BA  23107.88931249  .00006838  00000-0  44733-3 0  9995,2 53934  53.2182   3.3299 0001294 115.1529 244.9597 15.08838204 32513,6917.886,95.438,540.646,538.856,0.0
53934.0,STARLINK-4775,PAYLOAD,2023-04-18 02:06:45,15.08843889,0.0001147,53.218,2.4375,107.7422,252.3695,0.0002559,3.788e-05,0.0,0 STARLINK-4775,1 53934U 22119BA  23108.08803097  .00003788  00000-0  25590-3 0  9998,2 53934  53.2180   2.4375 0001147 107.7422 252.3695 15.08843889 32542,6917.869,95.437,540.527,538.94,0.0
53934.0,STARLINK-4775,PAYLOAD,2023-04-18 16:25:14,15.08835222,0.0001218,53.2177,359.7644,81.5508,278.5622,0.00010499,1.383e-05,0.0,0 STARLINK-4775,1 53934U 22119BA  23108.68419819  .00001383  00000-0  10499-3 0  9990,2 53934  53.2177 359.7644 0001218  81.5508 278.5622 15.08835222 32191,6917.895,95.438,540.603,538.917,0.0
53934.0,STARLINK-4775,PAYLOAD,2023-04-19 01:57:33,15.0884472,0.0001018,53.2168,357.9772,111.2517,248.8584,0.00020911,3.042e-05,0.0,0 STARLINK-4775,1 53934U 22119BA  23109.08163402  .00003042  00000-0  20911-3 0  9993,2 53934  53.2168 357.9772 0001018 111.2517 248.8584 15.08844720 32259,6917.866,95.437,540.435,539.027,0.0
53934.0,STARLINK-4775,PAYLOAD,2023-04-19 22:37:34,15.08844777,9.03e-05,53.2174,354.1121,90.6431,269.4665,0.00025441,3.764e-05,0.0,0 STARLINK-4775,1 53934U 22119BA  23109.94275677  .00003764  00000-0  25441-3 0  9990,2 53934  53.2174 354.1121 0000903  90.6431 269.4665 15.08844777 32385,6917.866,95.437,540.355,539.106,0.0
